CCSDS_OEM_VERS = 2.0
CREATION_DATE  = 2025-02-26T18:18:07.830
ORIGINATOR     = NASA/JSC/FOD/TOPO

META_START
OBJECT_NAME          = ISS
OBJECT_ID            = 1998-067-A
CENTER_NAME          = Earth
REF_FRAME            = EME2000
TIME_SYSTEM          = UTC
START_TIME           = 2025-02-26T12:00:00.000
USEABLE_START_TIME   = 2025-02-26T12:00:00.000
USEABLE_STOP_TIME    = 2025-03-13T12:00:00.000
STOP_TIME            = 2025-03-13T12:00:00.000
META_STOP

COMMENT Source: This file was produced by the TOPO office within FOD at JSC.
COMMENT Units are in kg and m^2
COMMENT MASS=454339.00
COMMENT DRAG_AREA=1791.90
COMMENT DRAG_COEFF=1.95
COMMENT SOLAR_RAD_AREA=0.00
COMMENT SOLAR_RAD_COEFF=0.00
COMMENT Orbits start at the ascending node epoch
COMMENT ISS first asc. node: EPOCH = 2025-02-26T13:00:51.921 $ ORBIT = 1800 $ LAN(DEG) = 143.20256
COMMENT ISS last asc. node : EPOCH = 2025-03-13T10:30:18.047 $ ORBIT = 2031 $ LAN(DEG) = 92.38517
COMMENT Begin sequence of events
COMMENT TRAJECTORY EVENT SUMMARY:
COMMENT 
COMMENT |       EVENT        |       TIG        | ORB |   DV    |   HA    |   HP    |
COMMENT |                    |       GMT        |     |   M/S   |   KM    |   KM    |
COMMENT |                    |                  |     |  (F/S)  |  (NM)   |  (NM)   |
COMMENT =============================================================================
COMMENT  91P Launch            058:21:24:27.000             0.0     422.7     412.9
COMMENT                                                    (0.0)   (228.2)   (223.0)
COMMENT 
COMMENT  91P Dock              060:23:03:50.000             0.0     422.9     412.1
COMMENT                                                    (0.0)   (228.4)   (222.5)
COMMENT 
COMMENT  Crew10 Launch         071:23:48:54.000             0.0     424.3     408.4
COMMENT                                                    (0.0)   (229.1)   (220.5)
COMMENT 
COMMENT  Crew10 Dock           072:11:54:54.000             0.0     424.6     408.1
COMMENT                                                    (0.0)   (229.3)   (220.3)
COMMENT 
COMMENT =============================================================================
COMMENT End sequence of events
2025-02-27T11:09:00.000 -1661.097993477750 -4221.447579632990 5056.219805698710 5.82822969062631 -4.58874983596293 -1.90862718821312
2025-02-27T11:13:00.000 -218.979505173097 -5156.109127088960 4419.615172353590 6.11617827916406 -3.15254979030011 -3.36403514363373
2025-02-27T11:17:00.000 1239.045555415990 -5716.263397362010 3461.096676945650 5.95992552412168 -1.48681722294967 -4.57485352856319
2025-02-27T11:21:00.000 2607.042540259310 -5861.062235229470 2250.386340133930 5.37046812618905 0.28761691955315 -5.45272148444719
2025-02-27T11:25:00.000 3785.553382670820 -5579.853973927550 875.651031766948 4.39051838619109 2.04150107560360 -5.93330890792450
2025-02-27T11:29:00.000 4688.910380551320 -4893.060309990680 -562.915449630593 3.09160288814174 3.64676981491024 -5.98139302315587
2025-02-27T11:33:00.000 5251.569035703630 -3850.718651612000 -1960.472140315390 1.56881307048735 4.98628061324073 -5.59374310494346
2025-02-27T11:37:00.000 5432.914600167410 -2528.760157299560 -3215.289133192130 -0.06654627166821 5.96276852011126 -4.79930114628473
2025-02-27T11:41:00.000 5220.142876477880 -1023.338901348620 -4236.212612805160 -1.69549853088491 6.50596447213465 -3.65664666756599
2025-02-27T11:45:00.000 4629.035265375480 556.267404907077 -4949.251776608680 -3.20027162096237 6.57736013687177 -2.24926537267444
2025-02-27T11:49:00.000 3702.651083632090 2095.594096666710 -5302.809971197230 -4.47262598346020 6.17239256466392 -0.67913883294783
2025-02-27T11:53:00.000 2508.141541185060 3483.162806599960 -5271.269364179380 -5.42116673135646 5.32032041993708 0.94048715870048
2025-02-27T11:57:00.000 1131.947029300660 4618.377595964390 -4856.767591109520 -5.97743876235673 4.08204965083260 2.49286759307861
2025-02-27T12:01:00.000 -326.301003806725 5418.678109177030 -4089.093979124060 -6.10064490542903 2.54615894131770 3.86564751613750
2025-02-27T12:05:00.000 -1760.830016788210 5825.520478607510 -3023.683538754910 -5.78077044428135 0.82308662169491 4.95874222451334
2025-02-27T12:09:00.000 -3067.301711836960 5808.757901514140 -1737.789543718470 -5.03982711924822 -0.96231542522216 5.69155812302527
2025-02-27T12:13:00.000 -4150.437674822120 5369.073564050800 -325.017767842172 -3.93095145130572 -2.67955372972481 6.00937730768730
2025-02-27T12:17:00.000 -4931.135008541770 4538.164311683330 1111.496472522900 -2.53500904640612 -4.20237703860836 5.88811860893532
2025-02-27T12:21:00.000 -5352.437337351090 3376.504783176150 2466.769087366130 -0.95446548934229 -5.41882177717329 5.33656344741568
2025-02-27T12:25:00.000 -5383.781967402400 1968.839527864800 3641.815144037880 0.69463666796308 -6.23989640845459 4.39557546452598
2025-02-27T12:29:00.000 -5023.184806214980 417.826832920352 4550.990679278150 2.29172837561574 -6.60619834257045 3.13468083797726
2025-02-27T12:33:00.000 -4297.232115809920 -1163.592395652440 5128.230012488230 3.72075007909172 -6.49188164919988 1.64642405895877
2025-02-27T12:37:00.000 -3258.987332055350 -2660.461524931760 5331.744625637250 4.87841185779288 -5.90601711726766 0.03931655877186
2025-02-27T12:41:00.000 -1984.041350226570 -3964.106401194470 5146.920326375850 5.68134202383828 -4.89149995015209 -1.57005796496493
2025-02-27T12:45:00.000 -565.029465184635 -4979.895844625320 4587.286034694280 6.07168586091461 -3.52177388041249 -3.06509067962208
2025-02-27T12:49:00.000 895.009150040974 -5634.010466337050 3693.547818757630 6.02111002634555 -1.89584257585906 -4.33725855230873
2025-02-27T12:53:00.000 2290.015884675340 -5878.802246068930 2530.710066641030 5.53300789410064 -0.13154110995838 -5.29383478748432
2025-02-27T12:57:00.000 3518.592258288920 -5696.346872458150 1183.431744325190 4.64264433448740 1.64276168816667 -5.86479952612522
2025-02-27T13:01:00.000 4491.429344644660 -5099.859271854630 -250.111329756575 3.41492210231912 3.29757526628045 -6.00829443201878
2025-02-27T13:05:00.000 5137.903912650220 -4132.782196602980 -1665.439939820310 1.93967360663474 4.71209690167276 -5.71401095879502
2025-02-27T13:09:00.000 5411.277837370600 -2865.575257273550 -2959.499108690830 0.32481338373243 5.78345013954585 -5.00403075402003
2025-02-27T13:13:00.000 5292.050912003010 -1390.443269768880 -4038.246309215240 -1.31205661954850 6.43437612914026 -3.93082344737447
2025-02-27T13:17:00.000 4789.232309194920 185.491642966602 -4823.467026591800 -2.85241586902276 6.61851815321876 -2.57294373648342
2025-02-27T13:21:00.000 3939.523564831260 1748.003350937040 -5258.334472406540 -4.18538162960695 6.32327628035421 -1.02893508291809
2025-02-27T13:25:00.000 2804.555002372430 3183.944136477930 -5311.363565745450 -5.21524606622221 5.57011705724968 0.58980204421072
2025-02-27T13:29:00.000 1466.461090146680 4389.256686122960 -4978.589482595940 -5.86780945664744 4.41288872921800 2.16663051778191
2025-02-27T13:33:00.000 22.082682585521 5276.355942598730 -4283.879965334710 -6.09543294152495 2.93426852655523 3.58757162743532
2025-02-27T13:37:00.000 -1423.865036007820 5780.445510245520 -3277.352115155270 -5.88060989476994 1.24044873754161 4.74915857852061
2025-02-27T13:41:00.000 -2766.283097170980 5864.337595547770 -2031.929493021940 -5.23775553392391 -0.54602941399960 5.56600036541496
2025-02-27T13:45:00.000 -3907.333633569810 5521.366276605250 -638.192291730072 -4.21268938508630 -2.29488389783683 5.97733403321179
2025-02-27T13:49:00.000 -4763.691558347140 4776.108366023670 802.173836237097 -2.87988056223719 -3.87770252119912 5.95205935616748
2025-02-27T13:53:00.000 -5272.836047217720 3682.728879069820 2183.902634238470 -1.33709154254580 -5.17799242394828 5.49171321844741
2025-02-27T13:57:00.000 -5397.743479687000 2320.976557005050 3406.037832375660 0.30236477909028 -6.10042918287923 4.63038799214774
2025-02-27T14:01:00.000 -5129.580270049480 790.198106641998 4379.443631477160 1.91841523902586 -6.57803641333658 3.43181575948073
2025-02-27T14:05:00.000 -4488.216252042810 -798.084074964420 5033.332470549490 3.39343395210175 -6.57685470163059 1.98411995542642
2025-02-27T14:09:00.000 -3520.599981694930 -2328.368683280480 5320.318853456710 4.62071673891807 -6.09778017098870 0.39297710891737
2025-02-27T14:13:00.000 -2297.233200179980 -3689.519340084880 5219.728124417780 5.51180531312829 -5.17603251247752 -1.22602526605642
2025-02-27T14:17:00.000 -907.038976594493 -4782.729115170310 4738.998871174790 6.00253217580724 -3.87849358983797 -2.75559024740148
2025-02-27T14:21:00.000 549.024599143116 -5528.579081458290 3913.112848577210 6.05734539446624 -2.29894193856511 -4.08477877006747
2025-02-27T14:25:00.000 1965.192007697120 -5872.779162906240 2802.135638919940 5.67204233762842 -0.55179001268553 -5.11679774398598
2025-02-27T14:29:00.000 3238.532850048920 -5790.181520351210 1486.933955395300 4.87436224797700 1.23595527149586 -5.77617554617253
2025-02-27T14:33:00.000 4276.472124723340 -5286.723454151270 63.334924494768 3.72239092727934 2.93388066459706 -6.01454928472898
2025-02-27T14:37:00.000 5003.627342397560 -4399.067072038270 -1364.896232113170 2.30041812063038 4.41799366307085 -5.81459904087178
2025-02-27T14:41:00.000 5367.366408318950 -3191.899785541170 -2693.732918665660 0.71251141363555 5.58025177781485 -5.19145103161008
2025-02-27T14:45:00.000 5341.614042965480 -1753.094189270090 -3826.557719752070 -0.92553022404172 6.33667056425901 -4.19128100650369
2025-02-27T14:49:00.000 4928.613785782230 -187.175970711641 -4681.196837743190 -2.49498919810163 6.63323045396176 -2.88744318238102
2025-02-27T14:53:00.000 4158.588810862770 1392.317365543790 -5195.780038931870 -3.88277917676716 6.44920708992142 -1.37471287843327
2025-02-27T14:57:00.000 3087.441802173950 2870.997014282390 -5333.070754471980 -4.98922067894259 5.79820887399164 0.23764342180171
